NORAD_CAT_ID,OBJECT_NAME,OBJECT_TYPE,EPOCH,MEAN_MOTION,ECCENTRICITY,INCLINATION,RA_OF_ASC_NODE,ARG_OF_PERICENTER,MEAN_ANOMALY,BSTAR,MEAN_MOTION_DOT,MEAN_MOTION_DDOT,TLE_LINE0,TLE_LINE1,TLE_LINE2,SEMIMAJOR_AXIS,PERIOD,APOGEE,PERIGEE,DECAYED
53258.0,STARLINK-4127,PAYLOAD,2022-09-02 14:00:01,15.68758135,4.38e-05,53.2175,205.1621,106.1249,357.5847,-0.010152,-0.01061149,0.0,0 STARLINK-4127,1 53258U 22086S   22245.58334491 -.01061149  00000-0 -10152-1 0  9997,2 53258  53.2175 205.1621 0000438 106.1249 357.5847 15.68758135  1305,6740.589,91.792,362.749,362.159,0.0
53258.0,STARLINK-4127,PAYLOAD,2022-09-02 22:00:01,15.67992025,0.0001236,53.2177,203.523,78.8779,108.0178,-0.01035,-0.01049667,0.0,0 STARLINK-4127,1 53258U 22086S   22245.91668981 -.01049667  00000-0 -10350-1 0  9999,2 53258  53.2177 203.5230 0001236  78.8779 108.0178 15.67992025  1308,6742.784000000002,91.837,365.483,363.816,0.0
53258.0,STARLINK-4127,PAYLOAD,2022-09-03 14:00:01,15.66473607,9.88e-05,53.2173,200.2527,77.0488,273.2815,-0.011034,-0.0105126,0.0,0 STARLINK-4127,1 53258U 22086S   22246.58334491 -.01051260  00000-0 -11034-1 0  9991,2 53258  53.2173 200.2527 0000988  77.0488 273.2815 15.66473607  7081,6747.141,91.926,369.673,368.339,0.0
53258.0,STARLINK-4127,PAYLOAD,2022-09-03 22:00:00,15.65712975,0.00011,53.2176,198.61900000000003,73.9226,356.7886,-0.011346,-0.01048489,0.0,0 STARLINK-4127,1 53258U 22086S   22246.91667824 -.01048489  00000-0 -11346-1 0  9992,2 53258  53.2176 198.6190 0001100  73.9226 356.7886 15.65712975  1309,6749.326,91.971,371.9330000000001,370.449,0.0
53258.0,STARLINK-4127,PAYLOAD,2022-09-04 12:00:00,15.64384875,0.0001114,53.2172,195.7669,88.4119,30.7689,-0.011987,-0.01049954,0.0,0 STARLINK-4127,1 53258U 22086S   22247.50001157 -.01049954  00000-0 -11987-1 0  9998,2 53258  53.2172 195.7669 0001114  88.4119  30.7689 15.64384875  7232,6753.145,92.049,375.763,374.258,0.0
53258.0,STARLINK-4127,PAYLOAD,2022-09-04 14:00:01,15.64197271,0.0001195,53.2175,195.3592,99.106,129.6928,-0.012126,-0.01053789,0.0,0 STARLINK-4127,1 53258U 22086S   22247.58335648 -.01053789  00000-0 -12126-1 0  9998,2 53258  53.2175 195.3592 0001195  99.1060 129.6928 15.64197271  1307,6753.685,92.06,376.357,374.74300000000005,0.0
53258.0,STARLINK-4127,PAYLOAD,2022-09-04 20:00:01,15.63625129,0.0001237,53.2174,194.1378,89.7089,107.3433,-0.012337,-0.01048578,0.0,0 STARLINK-4127,1 53258U 22086S   22247.83334491 -.01048578  00000-0 -12337-1 0  9995,2 53258  53.2174 194.1378 0001237  89.7089 107.3433 15.63625129  1309,6755.333000000001,92.094,378.033,376.362,0.0
53258.0,STARLINK-4127,PAYLOAD,2022-09-05 04:00:00,15.62865678,0.0001179,53.2174,192.514,85.4806,188.529,-0.012723,-0.01065573,0.0,0 STARLINK-4127,1 53258U 22086S   22248.16667824 -.01065573  00000-0 -12723-1 0  9994,2 53258  53.2174 192.5140 0001179  85.4806 188.5290 15.62865678  7338,6757.521,92.138,380.1830000000001,378.589,0.0
53258.0,STARLINK-4127,PAYLOAD,2022-09-05 14:00:01,15.61914808,0.0001107,53.2175,190.4832,80.0993,18.8261,-0.01317,-0.01062819,0.0,0 STARLINK-4127,1 53258U 22086S   22248.58334491 -.01062819  00000-0 -13170-1 0  9998,2 53258  53.2175 190.4832 0001107  80.0993  18.8261 15.61914808  1306,6760.263000000001,92.195,382.877,381.38,0.0
53258.0,STARLINK-4127,PAYLOAD,2022-09-05 20:00:01,15.61344802,0.0001084,53.2176,189.2656,84.9998,340.1902,-0.013447,-0.01061426,0.0,0 STARLINK-4127,1 53258U 22086S   22248.83334491 -.01061426  00000-0 -13447-1 0  9996,2 53258  53.2176 189.2656 0001084  84.9998 340.1902 15.61344802  7444,6761.909000000002,92.228,384.507,383.041,0.0
53258.0,STARLINK-4127,PAYLOAD,2022-09-05 22:00:00,15.61155254,0.0001234,53.2177,188.8609,85.9832,87.8471,-0.0135539999999999,-0.01062003,0.0,0 STARLINK-4127,1 53258U 22086S   22248.91667824 -.01062003  00000-0 -13554-1 0  9995,2 53258  53.2177 188.8609 0001234  85.9832  87.8471 15.61155254  1309,6762.456,92.239,385.155,383.486,0.0
53258.0,STARLINK-4127,PAYLOAD,2022-09-06 12:00:00,15.59829207,0.0001226,53.2173,186.0276,89.9779,122.7387,-0.014346,-0.01067349,0.0,0 STARLINK-4127,1 53258U 22086S   22249.50001157 -.01067349  00000-0 -14346-1 0  9990,2 53258  53.2173 186.0276 0001226  89.9779 122.7387 15.59829207  7540,6766.288000000001,92.318,388.982,387.323,0.0
53258.0,STARLINK-4127,PAYLOAD,2022-09-06 14:00:01,15.5963779,0.0001032999999999,53.2173,185.6229,89.2829,231.6187,-0.0144139999999999,-0.01064741,0.0,0 STARLINK-4127,1 53258U 22086S   22249.58334491 -.01064741  00000-0 -14414-1 0  9997,2 53258  53.2173 185.6229 0001033  89.2829 231.6187 15.59637790  1308,6766.842,92.329,389.406,388.008,0.0
53258.0,STARLINK-4127,PAYLOAD,2022-09-06 20:00:01,15.59066976,0.0001155,53.2174,184.4099,93.3001,191.8124,-0.014678,-0.01061172,0.0,0 STARLINK-4127,1 53258U 22086S   22249.83334491 -.01061172  00000-0 -14678-1 0  9992,2 53258  53.2174 184.4099 0001155  93.3001 191.8124 15.59066976  1304,6768.493,92.363,391.14,389.576,0.0
53258.0,STARLINK-4127,PAYLOAD,2022-09-07 04:00:00,15.58309331,0.0001065,53.2173,182.7971,84.9724,271.6209,-0.01517,-0.01065113,0.0,0 STARLINK-4127,1 53258U 22086S   22250.16667824 -.01065113  00000-0 -15170-1 0  9996,2 53258  53.2173 182.7971 0001065  84.9724 271.6209 15.58309331  7650,6770.687,92.408,393.273,391.831,0.0
53258.0,STARLINK-4127,PAYLOAD,2022-09-07 14:00:01,15.57357349,0.0001207,53.2174,180.7793,86.6339,88.0311,-0.01565,-0.01060424,0.0,0 STARLINK-4127,1 53258U 22086S   22250.58334491 -.01060424  00000-0 -15650-1 0  9996,2 53258  53.2174 180.7793 0001207  86.6339  88.0311 15.57357349  1301,6773.446,92.464,396.128,394.49300000000005,0.0
53258.0,STARLINK-4127,PAYLOAD,2022-09-07 22:00:00,15.56598227,0.0001233,53.2176,179.169,92.0447,152.0486,-0.016108,-0.01060723,0.0,0 STARLINK-4127,1 53258U 22086S   22250.91667824 -.01060723  00000-0 -16108-1 0  9993,2 53258  53.2176 179.1690 0001233  92.0447 152.0486 15.56598227  1307,6775.648,92.509,398.348,396.677,0.0
53258.0,STARLINK-4127,PAYLOAD,2022-09-08 14:00:01,15.55078686,0.0001001,53.2175,175.9524,87.5717,292.6421,-0.017034,-0.01059952,0.0,0 STARLINK-4127,1 53258U 22086S   22251.58334491 -.01059952  00000-0 -17034-1 0  9999,2 53258  53.2175 175.9524 0001001  87.5717 292.6421 15.55078686  1309,6780.061,92.6,402.605,401.247,0.0
53258.0,STARLINK-4127,PAYLOAD,2022-09-08 22:00:00,15.54352697,0.0001133,53.2176,174.3485,94.8409,352.0444,-0.018259,-0.01101839,0.0,0 STARLINK-4127,1 53258U 22086S   22251.91667824 -.01101839  00000-0 -18259-1 0  9997,2 53258  53.2176 174.3485 0001133  94.8409 352.0444 15.54352697  1306,6782.172,92.643,404.805,403.268,0.0
53258.0,STARLINK-4127,PAYLOAD,2022-09-09 14:00:01,15.52799453,0.0001226,53.2174,171.142,90.0206,127.5279,-0.018475,-0.01057601,0.0,0 STARLINK-4127,1 53258U 22086S   22252.58334491 -.01057601  00000-0 -18475-1 0  9999,2 53258  53.2174 171.1420 0001226  90.0206 127.5279 15.52799453  1308,6786.694,92.736,409.391,407.727,0.0
53258.0,STARLINK-4127,PAYLOAD,2022-09-09 22:00:00,15.52040972,0.0001183,53.2175,169.543,91.7673,189.7332,-0.01902,-0.01059068,0.0,0 STARLINK-4127,1 53258U 22086S   22252.91667824 -.01059068  00000-0 -19020-1 0  9991,2 53258  53.2175 169.5430 0001183  91.7673 189.7332 15.52040972  1304,6788.905,92.781,411.573,409.967,0.0
53258.0,STARLINK-4127,PAYLOAD,2022-09-10 04:00:00,15.51470837,0.0001273,53.2175,168.3457,89.9902,148.8755,-0.019397,-0.01058158,0.0,0 STARLINK-4127,1 53258U 22086S   22253.16667824 -.01058158  00000-0 -19397-1 0  9995,2 53258  53.2175 168.3457 0001273  89.9902 148.8755 15.51470837  8111,6790.568,92.815,413.297,411.568,0.0
53258.0,STARLINK-4127,PAYLOAD,2022-09-10 12:00:00,15.50597027,0.0001319,53.2174,166.7477,97.0285,204.2133,-0.01349,-0.00726798,0.0,0 STARLINK-4127,1 53258U 22086S   22253.50001157 -.00726798  00000-0 -13490-1 0  9993,2 53258  53.2174 166.7477 0001319  97.0285 204.2133 15.50597027  8161,6793.119000000002,92.867,415.88,414.088,0.0
53258.0,STARLINK-4127,PAYLOAD,2022-09-10 14:00:01,15.50398518,0.0001216,53.2174,166.3484,98.2409,308.4444,-0.010862,-0.00583608,0.0,0 STARLINK-4127,1 53258U 22086S   22253.58334491 -.00583608  00000-0 -10862-1 0  9992,2 53258  53.2174 166.3484 0001216  98.2409 308.4444 15.50398518  1307,6793.699000000001,92.879,416.39,414.73800000000006,0.0
53258.0,STARLINK-4127,PAYLOAD,2022-09-10 20:00:01,15.49958627,0.000135,53.2175,165.1531,98.4537,264.2568,-0.0020963,-0.0011795999999999,0.0,0 STARLINK-4127,1 53258U 22086S   22253.83334491 -.00117960  00000-0 -20963-2 0  9998,2 53258  53.2175 165.1531 0001350  98.4537 264.2568 15.49958627  8226,6794.984,92.906,417.766,415.932,0.0
53258.0,STARLINK-4127,PAYLOAD,2022-09-10 22:00:00,15.49884393,0.0001239,53.2175,164.7554,92.9626,15.0118,5.3601e-06,-1.47e-06,0.0,0 STARLINK-4127,1 53258U 22086S   22253.91667824 -.00000147  00000-0  53601-5 0  9991,2 53258  53.2175 164.7554 0001239  92.9626  15.0118 15.49884393  1303,6795.201,92.91,417.908,416.224,0.0
53258.0,STARLINK-4127,PAYLOAD,2022-09-11 06:00:00,15.49869194,0.0001077,53.2172,163.1707,78.4871,90.1888,0.00090648,0.00051305,0.0,0 STARLINK-4127,1 53258U 22086S   22254.25001157  .00051305  00000-0  90648-3 0  9991,2 53258  53.2172 163.1707 0001077  78.4871  90.1888 15.49869194  8288,6795.245,92.911,417.842,416.379,0.0
53258.0,STARLINK-4127,PAYLOAD,2022-09-11 14:00:01,15.49876508,0.0001029,53.2174,161.5756,90.1598,139.4402,0.0010421,0.00059123,0.0,0 STARLINK-4127,1 53258U 22086S   22254.58334491  .00059123  00000-0  10421-2 0  9993,2 53258  53.2174 161.5756 0001029  90.1598 139.4402 15.49876508  1302,6795.224,92.911,417.788,416.39,0.0
53258.0,STARLINK-4127,PAYLOAD,2022-09-11 22:00:00,15.49929005,0.0001122,53.2173,159.9837,86.0486,204.4766,-0.00019871,-0.0001173,0.0,0 STARLINK-4127,1 53258U 22086S   22254.91667824 -.00011730  00000-0 -19871-3 0  9992,2 53258  53.2173 159.9837 0001122  86.0486 204.4766 15.49929005  8388,6795.071,92.907,417.698,416.173,0.0
